OBJECT_NAME,OBJECT_ID,EPOCH,MEAN_MOTION,ECCENTRICITY,INCLINATION,RA_OF_ASC_NODE,ARG_OF_PERICENTER,MEAN_ANOMALY,EPHEMERIS_TYPE,CLASSIFICATION_TYPE,NORAD_CAT_ID,ELEMENT_SET_NO,REV_AT_EPOCH,BSTAR,MEAN_MOTION_DOT,MEAN_MOTION_DDOT
GPS BIIR-2  (PRN 13),1997-035A,2026-03-01T00:14:10.378176,2.00563922,.00978565,55.9334,102.8040,56.2915,304.7159,0,U,24876,999,20978,0,.2E-6,0
GPS BIIR-5  (PRN 22),2000-040A,2026-02-28T20:11:28.702752,2.00568803,.01227847,54.8763,219.4631,302.5190,229.8849,0,U,26407,999,18777,0,.9E-7,0
GPS BIIR-8  (PRN 16),2003-005A,2026-03-01T10:15:24.723936,2.00566372,.0148736,54.9080,219.2478,52.6971,318.8246,0,U,27663,999,16915,0,.2E-7,0
GPS BIIR-11 (PRN 19),2004-009A,2026-03-01T08:58:02.491680,2.00558119,.0110828,54.9186,280.0421,168.9880,319.7388,0,U,28190,999,16078,0,.5E-7,0
GPS BIIR-13 (PRN 02),2004-045A,2026-03-01T08:34:28.324128,2.00573160,.0170887,55.1965,329.2420,312.7031,227.4565,0,U,28474,999,15626,0,-.88E-6,0
GPS BIIRM-1 (PRN 17),2005-038A,2026-03-01T08:31:54.393024,2.00573138,.0128882,54.9654,277.5282,295.2964,203.9501,0,U,28874,999,14967,0,.9E-7,0
INMARSAT 4-F2 (SOUTHPAN/PRN 122),2005-044A,2026-03-01T11:56:07.679040,1.00272452,.0002503,4.9537,43.8026,312.2837,125.7294,0,U,28899,999,7444,0,-.276E-5,0
GPS BIIRM-2 (PRN 31),2006-042A,2026-03-01T07:43:28.608096,2.00575456,.0106807,54.6984,155.6224,52.8668,319.0585,0,U,29486,999,14223,0,-.26E-6,0
GPS BIIRM-3 (PRN 12),2006-052A,2026-02-28T17:21:54.682848,2.00551333,.0087934,54.9584,218.3028,89.3093,271.6592,0,U,29601,999,14123,0,.1E-6,0
GPS BIIRM-4 (PRN 15),2007-047A,2026-03-01T00:43:58.249920,2.00560826,.01635783,54.0129,84.5227,85.9294,276.0062,0,U,32260,999,13464,0,.12E-6,0
COSMOS 2433 (720),2007-052A,2026-02-28T23:40:22.570176,2.13103887,.0002353,65.6370,319.5772,271.3066,88.7182,0,U,32275,999,14275,0,-.49E-6,0
COSMOS 2432 (719),2007-052B,2026-03-01T05:23:08.599776,2.13103055,.00106915,65.6527,319.6949,329.4974,157.3757,0,U,32276,999,14278,0,-.5E-6,0
GPS BIIRM-5 (PRN 29),2007-062A,2026-03-01T02:14:28.801824,2.00553256,.00328376,55.1174,278.4968,160.6293,12.9281,0,U,32384,999,13334,0,.11E-6,0
COSMOS 2434 (721),2007-065A,2026-02-28T16:01:01.612128,2.13101172,.00039517,64.3188,195.5729,70.7248,294.9025,0,U,32393,999,14146,0,-.9E-7,0
COSMOS 2436 (723),2007-065C,2026-03-01T10:43:38.305632,2.13099991,.0017547,64.3273,195.6177,7.6529,8.7984,0,U,32395,999,14143,0,-.13E-6,0
GPS BIIRM-6 (PRN 07),2008-012A,2026-02-28T10:48:29.520288,2.00568968,.02067443,54.4822,154.2701,246.1169,111.7145,0,U,32711,999,13157,0,-.31E-6,0
GPS BIIRM-8 (PRN 05),2009-043A,2026-03-01T01:47:29.343552,2.00560547,.00516413,56.1461,31.6985,80.7088,26.1118,0,U,35752,999,12119,0,-.69E-6,0
COSMOS 2456 (730),2009-070A,2026-03-01T08:39:52.592832,2.13103410,.0006223,64.9467,74.6496,304.7451,30.5541,0,U,36111,999,12612,0,.35E-6,0
COSMOS 2457 (733),2009-070B,2026-03-01T10:05:18.400704,2.13100899,.0002228,64.9320,74.4935,196.4022,312.8150,0,U,36112,999,12613,0,.34E-6,0
COSMOS 2460 (732),2010-007C,2026-03-01T08:54:57.992256,2.13105990,.0001778,65.4815,318.1174,10.4214,102.0361,0,U,36402,999,12443,0,-.46E-6,0
GPS BIIF-1  (PRN 25),2010-022A,2026-02-28T20:17:04.034976,2.00557011,.01273627,54.2895,212.9243,65.8580,352.0725,0,U,36585,999,11542,0,0,0
BEIDOU-2 IGSO-1 (C06),2010-036A,2026-02-28T19:17:13.290720,1.00252838,.00539202,54.2920,163.9431,219.0373,170.2747,0,U,36828,999,5701,0,-.169E-5,0
BEIDOU-2 G4 (C04),2010-057A,2026-03-01T12:16:34.660992,1.00271933,.0009285,3.3789,69.5594,209.6924,224.1944,0,U,37210,999,5621,0,-.129E-5,0
BEIDOU-2 IGSO-2 (C07),2010-068A,2026-02-27T08:26:36.872160,1.00260216,.00473789,47.7414,273.1895,212.9968,264.9944,0,U,37256,999,5569,0,-.158E-5,0
BEIDOU-2 IGSO-3 (C08),2011-013A,2026-02-27T21:48:44.352288,1.00294022,.00350296,62.2642,41.1818,190.8154,358.7681,0,U,37384,999,5456,0,-.154E-5,0
GSAT-8 (GAGAN/PRN 127),2011-022A,2026-03-01T10:59:14.463456,1.00270929,.0007634,1.8525,83.1958,213.0759,82.8325,0,U,37605,999,5213,0,.67E-6,0
BEIDOU-2 IGSO-4 (C09),2011-038A,2026-02-28T18:10:38.525376,1.00265982,.01544806,54.5891,166.6527,231.0042,128.1008,0,U,37763,999,5356,0,-.138E-5,0
GSAT0101 (GALILEO-PFM),2011-060A,2026-02-22T11:08:37.810464,1.70475478,.00039756,57.0318,344.8758,357.0591,2.9533,0,U,37846,999,8916,0,-.82E-6,0
GSAT0102 (GALILEO-FM2),2011-060B,2026-02-22T02:21:09.417024,1.70475770,.00054619,57.0325,344.8861,338.0997,202.6314,0,U,37847,999,8916,0,-.81E-6,0
COSMOS 2476 (744),2011-064A,2026-03-01T12:12:21.344832,2.13103602,.0025199,65.2072,76.5060,241.1119,115.7338,0,U,37867,999,11146,0,.37E-6,0
COSMOS 2477 (745),2011-064B,2026-03-01T10:29:13.966944,2.13102701,.0022294,65.2136,76.5868,242.6449,239.9292,0,U,37868,999,11146,0,.38E-6,0
